     2              NAVIGATION DATA                         RINEX VERSION / TYPE
CCRINEXN V1.6.0 UX  CDDIS               31-MAR-04 02:36     PGM / RUN BY / DATE 
IGS BROADCAST EPHEMERIS FILE                                COMMENT             
    0.2142D-07  0.1490D-07 -0.1192D-06 -0.5960D-07          ION ALPHA           
    0.1208D+06  0.3277D+05 -0.2621D+06  0.1311D+06          ION BETA            
    0.000000000000D+00 0.710542735760D-14   405504     1264 DELTA-UTC: A0,A1,T,W
    13                                                      LEAP SECONDS        
                                                            END OF HEADER       
11 04  3 30 22  0  0.0 0.106605235487D-03 0.261479726760D-11 0.000000000000D+00
    0.128000000000D+03 0.139687500000D+02 0.581809949005D-08-0.434458925301D+00
    0.707805156708D-06 0.283511984162D-02 0.707618892193D-05 0.515368984413D+04
    0.252000000000D+06 0.651925802231D-07 0.180002143608D+01 0.558793544769D-08
    0.907452078336D+00 0.215656250000D+03 0.885179794263D-01-0.865107463770D-08
   -0.315370279295D-09 0.000000000000D+00 0.126400000000D+04 0.000000000000D+00
    0.200000000000D+01 0.000000000000D+00-0.121071934700D-07 0.128000000000D+03
    0.250710000000D+06 0.000000000000D+00 0.000000000000D+00 0.000000000000D+00
13 04  3 30 22  0  0.0-0.301692634821D-04 0.341060513165D-12 0.000000000000D+00
    0.157000000000D+03-0.264375000000D+02 0.408588447920D-08 0.238408554856D+01
   -0.154040753841D-05 0.216806493700D-02 0.380910933018D-05 0.515369425011D+04
    0.252000000000D+06-0.651925802231D-07-0.228056881574D+01-0.558793544769D-07
    0.982588526653D+00 0.315406250000D+03 0.676394352551D+00-0.800676208521D-08
   -0.260725145963D-10 0.000000000000D+00 0.126400000000D+04 0.000000000000D+00
    0.200000000000D+01 0.000000000000D+00-0.111758708954D-07 0.413000000000D+03
    0.244800000000D+06 0.400000000000D+01 0.000000000000D+00 0.000000000000D+00
14 04  3 30 22  0  0.0-0.185738317668D-04-0.227373675443D-12 0.000000000000D+00
    0.230000000000D+02-0.176250000000D+02 0.427017798899D-08 0.549938436652D+00
   -0.955536961556D-06 0.154071964789D-02 0.322796404362D-05 0.515358878517D+04
    0.252000000000D+06 0.186264514923D-07-0.228952562384D+01-0.223517417908D-07
    0.977049378988D+00 0.327343750000D+03-0.140538221780D+01-0.812533862415D-08
   -0.164292555255D-10 0.100000000000D+01 0.126400000000D+04 0.000000000000D+00
    0.200000000000D+01 0.000000000000D+00-0.102445483208D-07 0.279000000000D+03
    0.244818000000D+06 0.400000000000D+01 0.000000000000D+00 0.000000000000D+00
17 04  3 30 22  0  0.0 0.257594976574D-03 0.196678229258D-10 0.000000000000D+00
    0.162000000000D+03 0.354687500000D+02 0.445054252582D-08-0.383462731893D+00
    0.190362334251D-05 0.164344332879D-01 0.846572220326D-05 0.515359530640D+04
    0.252000000000D+06 0.191852450371D-06 0.201799886168D+01 0.141561031342D-06
    0.969360660460D+00 0.221406250000D+03-0.280418683407D+01-0.809855162290D-08
   -0.345728686702D-09 0.100000000000D+01 0.126400000000D+04 0.000000000000D+00
    0.280000000000D+01 0.000000000000D+00-0.139698386192D-08 0.418000000000D+03
    0.244818000000D+06 0.400000000000D+01 0.000000000000D+00 0.000000000000D+00
18 04  3 30 22  0  0.0-0.226739794016D-04-0.295585778076D-11 0.000000000000D+00
    0.223000000000D+03 0.704687500000D+02 0.437339645523D-08-0.249281013662D+01
    0.366568565369D-05 0.455699278973D-02 0.656768679619D-05 0.515365716743D+04
    0.252000000000D+06-0.763684511185D-07 0.299388444984D+01-0.132247805595D-06
    0.964314523502D+00 0.253312500000D+03-0.294563749205D+01-0.803569186168D-08
    0.710743891050D-10 0.100000000000D+01 0.126400000000D+04 0.000000000000D+00
    0.280000000000D+01 0.000000000000D+00-0.102445483208D-07 0.479000000000D+03
    0.244818000000D+06 0.400000000000D+01 0.000000000000D+00 0.000000000000D+00
19 04  3 30 22  0  0.0-0.954386778176D-04 0.133013600134D-10 0.000000000000D+00
    0.600000000000D+01 0.196875000000D+02 0.476162691230D-08 0.307661761670D+01
    0.957399606705D-06 0.330946384929D-02 0.633485615253D-05 0.515380068970D+04
    0.252000000000D+06 0.149011611939D-07 0.906516899176D+00-0.117346644402D-06
    0.960986851542D+00 0.257031250000D+03-0.209625228372D+01-0.806855037322D-08
   -0.514307137242D-10 0.100000000000D+01 0.126400000000D+04 0.000000000000D+00
    0.000000000000D+00 0.630000000000D+02-0.698491930962D-08 0.600000000000D+01
    0.246960000000D+06 0.000000000000D+00 0.000000000000D+00 0.000000000000D+00
20 04  3 30 22  0  0.0-0.176468398422D-03 0.318323145621D-11 0.000000000000D+00
    0.830000000000D+02 0.580000000000D+02 0.439839749662D-08 0.313678355910D+01
    0.316090881824D-05 0.221278867684D-02 0.643171370029D-05 0.515369520378D+04
    0.252000000000D+06 0.689178705215D-07 0.294162956611D+01 0.000000000000D+00
    0.964355555428D+00 0.257218750000D+03 0.153040038512D+01-0.802426281418D-08
    0.378587198248D-10 0.100000000000D+01 0.126400000000D+04 0.000000000000D+00
    0.000000000000D+00 0.000000000000D+00-0.698491930962D-08 0.339000000000D+03
    0.244806000000D+06 0.400000000000D+01 0.000000000000D+00 0.000000000000D+00
21 04  3 30 22  0  0.0 0.742203556001D-04 0.454747350887D-12 0.000000000000D+00
    0.127000000000D+03 0.240937500000D+02 0.466090843126D-08-0.110424815737D+01
    0.111013650894D-05 0.844451389276D-02 0.858865678310D-05 0.515370128059D+04
    0.252000000000D+06-0.242143869400D-07 0.194941637853D+01-0.119209289551D-06
    0.953906254893D+00 0.209781250000D+03 0.296123071830D+01-0.807819363205D-08
   -0.235724104569D-09 0.100000000000D+01 0.126400000000D+04 0.000000000000D+00
    0.400000000000D+01 0.000000000000D+00-0.121071934700D-07 0.383000000000D+03
    0.244818000000D+06 0.400000000000D+01 0.000000000000D+00 0.000000000000D+00
22 04  3 30 22  0  0.0-0.195731408894D-04 0.704858393874D-11 0.000000000000D+00
    0.720000000000D+02 0.621562500000D+02 0.449197282298D-08 0.169272131623D+01
    0.315718352795D-05 0.504239625297D-02 0.664219260216D-05 0.515359186554D+04
    0.252000000000D+06 0.447034835815D-07 0.300386723019D+01-0.100582838059D-06
    0.961657717978D+00 0.250531250000D+03-0.139992167419D+01-0.804140638543D-08
    0.539308178636D-10 0.100000000000D+01 0.126400000000D+04 0.000000000000D+00
    0.280000000000D+01 0.000000000000D+00-0.176951289177D-07 0.328000000000D+03
    0.248208000000D+06 0.400000000000D+01 0.000000000000D+00 0.000000000000D+00
24 04  3 30 22  0  0.0 0.156187452376D-04 0.284217094304D-11 0.000000000000D+00
    0.224000000000D+03 0.405000000000D+02 0.435303846438D-08-0.122964804391D+01
    0.214204192162D-05 0.931123562623D-02 0.857375562191D-05 0.515360886764D+04
    0.252000000000D+06-0.227242708206D-06 0.195045330510D+01 0.819563865662D-07
    0.970580334761D+00 0.223562500000D+03-0.140120069907D+01-0.796997483859D-08
   -0.355014787791D-09 0.100000000000D+01 0.126400000000D+04 0.000000000000D+00
    0.280000000000D+01 0.000000000000D+00-0.139698386192D-08 0.480000000000D+03
    0.244818000000D+06 0.400000000000D+01 0.000000000000D+00 0.000000000000D+00
25 04  3 30 22  0  0.0 0.634854659438D-04 0.682121026330D-12 0.000000000000D+00
    0.163000000000D+03-0.805000000000D+02 0.485555951002D-08-0.553122075549D+00
   -0.420585274696D-05 0.113006595057D-01 0.726431608200D-05 0.515366574287D+04
    0.252000000000D+06-0.117346644402D-06-0.132376140558D+01 0.152736902237D-06
    0.944025874421D+00 0.236218750000D+03-0.160002578551D+01-0.840106384459D-08
    0.110718899327D-10 0.100000000000D+01 0.126400000000D+04 0.000000000000D+00
    0.400000000000D+01 0.000000000000D+00-0.745058059692D-08 0.419000000000D+03
    0.244818000000D+06 0.400000000000D+01 0.000000000000D+00 0.000000000000D+00
26 04  3 30 22  0  0.0 0.161165371537D-05 0.196678229258D-10 0.000000000000D+00
    0.234000000000D+03-0.247500000000D+02 0.428946438770D-08 0.525104926808D+00
   -0.105425715447D-05 0.152241243050D-01 0.293366611004D-05 0.515364761353D+04
    0.252000000000D+06-0.316649675369D-07-0.227776965658D+01 0.290572643280D-06
    0.980951489138D+00 0.330218750000D+03 0.561005899073D+00-0.832427531091D-08
   -0.132862677121D-09 0.100000000000D+01 0.126400000000D+04 0.000000000000D+00
    0.280000000000D+01 0.000000000000D+00-0.605359673500D-08 0.490000000000D+03
    0.244818000000D+06 0.400000000000D+01 0.000000000000D+00 0.000000000000D+00
27 04  3 30 22  0  0.0 0.660703517497D-04 0.337649908033D-10 0.000000000000D+00
    0.154000000000D+03-0.953750000000D+02 0.446840041253D-08-0.209892747813D+01
   -0.509433448315D-05 0.181067481171D-01 0.735558569431D-05 0.515377482987D+04
    0.252000000000D+06 0.154599547386D-06-0.129564926371D+01-0.173225998879D-06
    0.948565170244D+00 0.225125000000D+03-0.218154492816D+01-0.779032449829D-08
    0.892894335490D-10 0.000000000000D+00 0.126400000000D+04 0.000000000000D+00
    0.200000000000D+01 0.000000000000D+00-0.419095158577D-08 0.410000000000D+03
    0.244830000000D+06 0.400000000000D+01 0.000000000000D+00 0.000000000000D+00
28 04  3 30 22  0  0.0 0.259988009930D-04 0.147792889038D-11 0.000000000000D+00
    0.122000000000D+03-0.212500000000D+01 0.440732643998D-08 0.274285547553D+01
   -0.447034835815D-07 0.866635877173D-02 0.971369445324D-05 0.515369584465D+04
    0.252000000000D+06-0.130385160446D-07-0.184766135017D+00-0.968575477600D-07
    0.959472409488D+00 0.192000000000D+03-0.239966087162D+01-0.770889253489D-08
    0.404302555110D-09 0.000000000000D+00 0.126400000000D+04 0.000000000000D+00
    0.200000000000D+01 0.000000000000D+00-0.102445483208D-07 0.122000000000D+03
    0.251760000000D+06 0.400000000000D+01 0.000000000000D+00 0.000000000000D+00
